[{"OBJECT_NAME":"LYNK TOWER 6","OBJECT_ID":"2024-043AB","EPOCH":"2026-03-09T21:28:38.303328","MEAN_MOTION":15.29548678,"ECCENTRICITY":0.00097492,"INCLINATION":97.5426,"RA_OF_ASC_NODE":204.1954,"ARG_OF_PERICENTER":232.0253,"MEAN_ANOMALY":128.0107,"EPHEMERIS_TYPE":0,"CLASSIFICATION_TYPE":"U","NORAD_CAT_ID":59123,"ELEMENT_SET_NO":999,"REV_AT_EPOCH":11184,"BSTAR":0.00040142146,"MEAN_MOTION_DOT":0.0001144,"MEAN_MOTION_DDOT":0},{"OBJECT_NAME":"STARLINK-36467","OBJECT_ID":"2026-003Q","EPOCH":"2026-03-09T12:06:19.370304","MEAN_MOTION":15.27584661,"ECCENTRICITY":0.00013875,"INCLINATION":43.0012,"RA_OF_ASC_NODE":228.278,"ARG_OF_PERICENTER":242.6137,"MEAN_ANOMALY":117.4574,"EPHEMERIS_TYPE":0,"CLASSIFICATION_TYPE":"U","NORAD_CAT_ID":67348,"ELEMENT_SET_NO":999,"REV_AT_EPOCH":879,"BSTAR":0.00098456726,"MEAN_MOTION_DOT":0.00026934,"MEAN_MOTION_DDOT":0}]
